{"type": "FeatureCollection", "features": [ {"type": "Feature", "properties": {"norad_id": 37330, "name": "COSMOS 2251 DEB", "group": "cosmos-2251-debris", "lat": -10.213670991028376, "lon": 135.53917762456388, "alt_km": 662.3233348404374, "timestamp": "2025-12-03T13:52:09.964584+00:00", "meta": {"OBJECT_NAME": "COSMOS 2251 DEB", "OBJECT_ID": "1993-036BKW", "EPOCH": "2025-12-01T16:35:02.444064", "MEAN_MOTION": 14.59484724, "ECCENTRICITY": 0.00575212, "INCLINATION": 74.017, "RA_OF_ASC_NODE": 316.1795, "ARG_OF_PERICENTER": 167.7697, "MEAN_ANOMALY": 192.4881, "EPHEMERIS_TYPE": 0, "CLASSIFICATION_TYPE": "U", "NORAD_CAT_ID": 37330, "ELEMENT_SET_NO": 999, "REV_AT_EPOCH": 86207, "BSTAR": 0.00032461737, "MEAN_MOTION_DOT": 1.545e-05, "MEAN_MOTION_DDOT": 0}, "tle": {"line1": "1 37330U 93036BKW 25335.69100051  .00001545  00000+0  32462-3 0  9991", "line2": "2 37330  74.0170 316.1795 0057521 167.7697 192.4881 14.59484724862076"}}, "geometry": {"type": "Point", "coordinates": [135.53917762456388, -10.213670991028376]}}, {"type": "Feature", "properties": {"norad_id": 37331, "name": "COSMOS 2251 DEB", "group": "cosmos-2251-debris", "lat": 38.24337231208625, "lon": 97.62897904469148, "alt_km": 753.1011437275802, "timestamp": "2025-12-03T13:52:09.964594+00:00", "meta": {"OBJECT_NAME": "COSMOS 2251 DEB", "OBJECT_ID": "1993-036BKX", "EPOCH": "2025-12-01T01:26:56.105376", "MEAN_MOTION": 14.34963315, "ECCENTRICITY": 0.0055446, "INCLINATION": 74.0748, "RA_OF_ASC_NODE": 89.2257, "ARG_OF_PERICENTER": 107.2854, "MEAN_ANOMALY": 253.4376, "EPHEMERIS_TYPE": 0, "CLASSIFICATION_TYPE": "U", "NORAD_CAT_ID": 37331, "ELEMENT_SET_NO": 999, "REV_AT_EPOCH": 84592, "BSTAR": 0.00070853607, "MEAN_MOTION_DOT": 2.027e-05, "MEAN_MOTION_DDOT": 0}, "tle": {"line1": "1 37331U 93036BKX 25335.06037159  .00002027  00000+0  70854-3 0  9994", "line2": "2 37331  74.0748  89.2257 0055446 107.2854 253.4376 14.34963315845920"}}, "geometry": {"type": "Point", "coordinates": [97.62897904469148, 38.24337231208625]}}, {"type": "Feature", "properties": {"norad_id": 37336, "name": "COSMOS 2251 DEB", "group": "cosmos-2251-debris", "lat": 73.20000977212618, "lon": 96.54204521331354, "alt_km": 756.819936577499, "timestamp": "2025-12-03T13:52:09.964605+00:00", "meta": {"OBJECT_NAME": "COSMOS 2251 DEB", "OBJECT_ID": "1993-036BLC", "EPOCH": "2025-12-01T07:48:14.136768", "MEAN_MOTION": 14.32750931, "ECCENTRICITY": 0.00286304, "INCLINATION": 74.0414, "RA_OF_ASC_NODE": 352.0528, "ARG_OF_PERICENTER": 73.4193, "MEAN_ANOMALY": 287.0099, "EPHEMERIS_TYPE": 0, "CLASSIFICATION_TYPE": "U", "NORAD_CAT_ID": 37336, "ELEMENT_SET_NO": 999, "REV_AT_EPOCH": 64956, "BSTAR": 8.422431e-05, "MEAN_MOTION_DOT": 2.05e-06, "MEAN_MOTION_DDOT": 0}, "tle": {"line1": "1 37336U 93036BLC 25335.32516362  .00000205  00000+0  84224-4 0  9999", "line2": "2 37336  74.0414 352.0528 0028630  73.4193 287.0099 14.32750931649565"}}, "geometry": {"type": "Point", "coordinates": [96.54204521331354, 73.20000977212618]}}, {"type": "Feature", "properties": {"norad_id": 37340, "name": "COSMOS 2251 DEB", "group": "cosmos-2251-debris", "lat": 1.4558922938827052, "lon": 113.59378686634868, "alt_km": 781.5406048116574, "timestamp": "2025-12-03T13:52:09.964615+00:00", "meta": {"OBJECT_NAME": "COSMOS 2251 DEB", "OBJECT_ID": "1993-036BLG", "EPOCH": "2025-12-02T15:19:15.488544", "MEAN_MOTION": 14.36901939, "ECCENTRICITY": 0.00173218, "INCLINATION": 74.0249, "RA_OF_ASC_NODE": 295.7387, "ARG_OF_PERICENTER": 33.3574, "MEAN_ANOMALY": 326.8667, "EPHEMERIS_TYPE": 0, "CLASSIFICATION_TYPE": "U", "NORAD_CAT_ID": 37340, "ELEMENT_SET_NO": 999, "REV_AT_EPOCH": 83922, "BSTAR": 0.00027978609, "MEAN_MOTION_DOT": 8.03e-06, "MEAN_MOTION_DDOT": 0}, "tle": {"line1": "1 37340U 93036BLG 25336.63837371  .00000803  00000+0  27979-3 0  9992", "line2": "2 37340  74.0249 295.7387 0017321  33.3574 326.8667 14.36901939839222"}}, "geometry": {"type": "Point", "coordinates": [113.59378686634868, 1.4558922938827052]}}, {"type": "Feature", "properties": {"norad_id": 37483, "name": "COSMOS 2251 DEB", "group": "cosmos-2251-debris", "lat": 66.970659963982, "lon": -157.02211293518707, "alt_km": 710.7903491554653, "timestamp": "2025-12-03T13:52:09.964625+00:00", "meta": {"OBJECT_NAME": "COSMOS 2251 DEB", "OBJECT_ID": "1993-036BLL", "EPOCH": "2025-12-02T19:14:27.105504", "MEAN_MOTION": 14.43532369, "ECCENTRICITY": 0.00926542, "INCLINATION": 73.9725, "RA_OF_ASC_NODE": 161.8757, "ARG_OF_PERICENTER": 10.6514, "MEAN_ANOMALY": 349.6575, "EPHEMERIS_TYPE": 0, "CLASSIFICATION_TYPE": "U", "NORAD_CAT_ID": 37483, "ELEMENT_SET_NO": 999, "REV_AT_EPOCH": 65136, "BSTAR": 0.00025341126, "MEAN_MOTION_DOT": 8.75e-06, "MEAN_MOTION_DDOT": 0}, "tle": {"line1": "1 37483U 93036BLL 25336.80170261  .00000875  00000+0  25341-3 0  9997", "line2": "2 37483  73.9725 161.8757 0092654  10.6514 349.6575 14.43532369651368"}}, "geometry": {"type": "Point", "coordinates": [-157.02211293518707, 66.970659963982]}}, {"type": "Feature", "properties": {"norad_id": 37484, "name": "COSMOS 2251 DEB", "group": "cosmos-2251-debris", "lat": 19.43988083913184, "lon": -128.48278599802777, "alt_km": 766.3474656278513, "timestamp": "2025-12-03T13:52:09.964636+00:00", "meta": {"OBJECT_NAME": "COSMOS 2251 DEB", "OBJECT_ID": "1993-036BLM", "EPOCH": "2025-12-01T23:33:59.283360", "MEAN_MOTION": 14.41705464, "ECCENTRICITY": 0.00403232, "INCLINATION": 73.8236, "RA_OF_ASC_NODE": 228.6314, "ARG_OF_PERICENTER": 264.9502, "MEAN_ANOMALY": 115.0574, "EPHEMERIS_TYPE": 0, "CLASSIFICATION_TYPE": "U", "NORAD_CAT_ID": 37484, "ELEMENT_SET_NO": 999, "REV_AT_EPOCH": 65224, "BSTAR": 0.00080475582, "MEAN_MOTION_DOT": 2.622e-05, "MEAN_MOTION_DDOT": 0}, "tle": {"line1": "1 37484U 93036BLM 25335.98193615  .00002622  00000+0  80476-3 0  9996", "line2": "2 37484  73.8236 228.6314 0040323 264.9502 115.0574 14.41705464652241"}}, "geometry": {"type": "Point", "coordinates": [-128.48278599802777, 19.43988083913184]}}, {"type": "Feature", "properties": {"norad_id": 37486, "name": "COSMOS 2251 DEB", "group": "cosmos-2251-debris", "lat": 38.49024483441277, "lon": -62.303332244173575, "alt_km": 967.8272609039022, "timestamp": "2025-12-03T13:52:09.964646+00:00", "meta": {"OBJECT_NAME": "COSMOS 2251 DEB", "OBJECT_ID": "1993-036BLP", "EPOCH": "2025-12-02T16:54:10.956672", "MEAN_MOTION": 14.13188429, "ECCENTRICITY": 0.0228993, "INCLINATION": 73.688, "RA_OF_ASC_NODE": 132.7403, "ARG_OF_PERICENTER": 2.4987, "MEAN_ANOMALY": 12.5088, "EPHEMERIS_TYPE": 0, "CLASSIFICATION_TYPE": "U", "NORAD_CAT_ID": 37486, "ELEMENT_SET_NO": 999, "REV_AT_EPOCH": 63228, "BSTAR": 0.0021348416, "MEAN_MOTION_DOT": 5.104e-05, "MEAN_MOTION_DDOT": 0}, "tle": {"line1": "1 37486U 93036BLP 25336.70429348  .00005104  00000+0  21348-2 0  9994", "line2": "2 37486  73.6880 132.7403 0228993   2.4987  12.5088 14.13188429632281"}}, "geometry": {"type": "Point", "coordinates": [-62.303332244173575, 38.49024483441277]}}, {"type": "Feature", "properties": {"norad_id": 37487, "name": "COSMOS 2251 DEB", "group": "cosmos-2251-debris", "lat": 10.851517037673712, "lon": 27.126906321499522, "alt_km": 637.6911320832323, "timestamp": "2025-12-03T13:52:09.964657+00:00", "meta": {"OBJECT_NAME": "COSMOS 2251 DEB", "OBJECT_ID": "1993-036BLQ", "EPOCH": "2025-12-03T01:45:33.375744", "MEAN_MOTION": 14.80341915, "ECCENTRICITY": 0.00252239, "INCLINATION": 73.9032, "RA_OF_ASC_NODE": 211.3022, "ARG_OF_PERICENTER": 51.1767, "MEAN_ANOMALY": 309.1655, "EPHEMERIS_TYPE": 0, "CLASSIFICATION_TYPE": "U", "NORAD_CAT_ID": 37487, "ELEMENT_SET_NO": 999, "REV_AT_EPOCH": 81102, "BSTAR": 0.0039664118, "MEAN_MOTION_DOT": 0.00030521, "MEAN_MOTION_DDOT": 0}, "tle": {"line1": "1 37487U 93036BLQ 25337.07330296  .00030521  00000+0  39664-2 0  9990", "line2": "2 37487  73.9032 211.3022 0025223  51.1767 309.1655 14.80341915811024"}}, "geometry": {"type": "Point", "coordinates": [27.126906321499522, 10.851517037673712]}}, {"type": "Feature", "properties": {"norad_id": 37491, "name": "COSMOS 2251 DEB", "group": "cosmos-2251-debris", "lat": 19.246778861626755, "lon": 103.66899639907469, "alt_km": 1107.339268736012, "timestamp": "2025-12-03T13:52:09.964668+00:00", "meta": {"OBJECT_NAME": "COSMOS 2251 DEB", "OBJECT_ID": "1993-036BLU", "EPOCH": "2025-12-01T13:55:34.044096", "MEAN_MOTION": 13.75223452, "ECCENTRICITY": 0.03181876, "INCLINATION": 73.9059, "RA_OF_ASC_NODE": 292.8015, "ARG_OF_PERICENTER": 287.8478, "MEAN_ANOMALY": 68.8175, "EPHEMERIS_TYPE": 0, "CLASSIFICATION_TYPE": "U", "NORAD_CAT_ID": 37491, "ELEMENT_SET_NO": 999, "REV_AT_EPOCH": 55593, "BSTAR": 0.0015718852, "MEAN_MOTION_DOT": 2.153e-05, "MEAN_MOTION_DDOT": 0}, "tle": {"line1": "1 37491U 93036BLU 25335.58025514  .00002153  00000+0  15719-2 0  9998", "line2": "2 37491  73.9059 292.8015 0318187 287.8478  68.8175 13.75223452555934"}}, "geometry": {"type": "Point", "coordinates": [103.66899639907469, 19.246778861626755]}}, {"type": "Feature", "properties": {"norad_id": 37498, "name": "COSMOS 2251 DEB", "group": "cosmos-2251-debris", "lat": 63.35684678204589, "lon": -13.561923575905903, "alt_km": 712.1005909979558, "timestamp": "2025-12-03T13:52:09.964678+00:00", "meta": {"OBJECT_NAME": "COSMOS 2251 DEB", "OBJECT_ID": "1993-036BMB", "EPOCH": "2025-12-02T07:38:53.705760", "MEAN_MOTION": 14.54689112, "ECCENTRICITY": 0.00134342, "INCLINATION": 74.038, "RA_OF_ASC_NODE": 203.6034, "ARG_OF_PERICENTER": 264.7495, "MEAN_ANOMALY": 95.2135, "EPHEMERIS_TYPE": 0, "CLASSIFICATION_TYPE": "U", "NORAD_CAT_ID": 37498, "ELEMENT_SET_NO": 999, "REV_AT_EPOCH": 65203, "BSTAR": 0.00080152077, "MEAN_MOTION_DOT": 3.406e-05, "MEAN_MOTION_DDOT": 0}, "tle": {"line1": "1 37498U 93036BMB 25336.31867715  .00003406  00000+0  80152-3 0  9990", "line2": "2 37498  74.0380 203.6034 0013434 264.7495  95.2135 14.54689112652037"}}, "geometry": {"type": "Point", "coordinates": [-13.561923575905903, 63.35684678204589]}}]}